{
  "type": "FeatureCollection",
  "features": [
    {
      "type": "Feature",
      "properties": {
        "norad_id": 28051,
        "name": "IRS-P6 (RESOURCESAT-1)",
        "group": "resource",
        "lat": -5.423950132393891,
        "lon": 39.058696742450515,
        "alt_km": 815.6828011368862,
        "timestamp": "2025-12-24T09:46:30.651861+00:00",
        "meta_object_name": "IRS-P6 (RESOURCESAT-1)",
        "meta_object_id": "2003-046A",
        "meta_epoch": "2025-12-24T05:08:20.084640",
        "meta_mean_motion": 14.36079416,
        "meta_eccentricity": 0.0064853,
        "meta_inclination": 98.2159,
        "meta_ra_of_asc_node": 38.0885,
        "meta_arg_of_pericenter": 146.4157,
        "meta_mean_anomaly": 290.4542,
        "meta_ephemeris_type": 0,
        "meta_classification_type": "U",
        "meta_norad_cat_id": 28051,
        "meta_element_set_no": 999,
        "meta_rev_at_epoch": 15541,
        "meta_bstar": 3.9293e-05,
        "meta_mean_motion_dot": 7.6e-07,
        "meta_mean_motion_ddot": 0,
        "tle_line1": "1 28051U 03046A   25358.21412135  .00000076  00000+0  39293-4 0  9993",
        "tle_line2": "2 28051  98.2159  38.0885 0064853 146.4157 290.4542 14.36079416155411"
      },
      "geometry": {
        "type": "Point",
        "coordinates": [
          39.058696742450515,
          -5.423950132393891
        ]
      }
    },
    {
      "type": "Feature",
      "properties": {
        "norad_id": 28220,
        "name": "SHIYAN-1 (SY-1)",
        "group": "resource",
        "lat": 43.379276086361024,
        "lon": -111.83286653036608,
        "alt_km": 479.63288700717567,
        "timestamp": "2025-12-24T09:46:30.651873+00:00",
        "meta_object_name": "SHIYAN-1 (SY-1)",
        "meta_object_id": "2004-012A",
        "meta_epoch": "2025-12-24T02:53:48.173280",
        "meta_mean_motion": 15.28429597,
        "meta_eccentricity": 0.0005127,
        "meta_inclination": 97.8916,
        "meta_ra_of_asc_node": 60.3318,
        "meta_arg_of_pericenter": 277.5215,
        "meta_mean_anomaly": 82.5441,
        "meta_ephemeris_type": 0,
        "meta_classification_type": "U",
        "meta_norad_cat_id": 28220,
        "meta_element_set_no": 999,
        "meta_rev_at_epoch": 18430,
        "meta_bstar": 0.00052439,
        "meta_mean_motion_dot": 0.00014449,
        "meta_mean_motion_ddot": 0,
        "tle_line1": "1 28220U 04012A   25358.12069645  .00014449  00000+0  52439-3 0  9994",
        "tle_line2": "2 28220  97.8916  60.3318 0005127 277.5215  82.5441 15.28429597184303"
      },
      "geometry": {
        "type": "Point",
        "coordinates": [
          -111.83286653036608,
          43.379276086361024
        ]
      }
    },
    {
      "type": "Feature",
      "properties": {
        "norad_id": 28376,
        "name": "AURA",
        "group": "resource",
        "lat": -45.15716011345069,
        "lon": 120.22759108308277,
        "alt_km": 697.4754770376421,
        "timestamp": "2025-12-24T09:46:30.651885+00:00",
        "meta_object_name": "AURA",
        "meta_object_id": "2004-026A",
        "meta_epoch": "2025-12-24T03:48:51.355008",
        "meta_mean_motion": 14.60971548,
        "meta_eccentricity": 0.0001421,
        "meta_inclination": 98.3202,
        "meta_ra_of_asc_node": 308.4396,
        "meta_arg_of_pericenter": 91.2354,
        "meta_mean_anomaly": 268.9009,
        "meta_ephemeris_type": 0,
        "meta_classification_type": "U",
        "meta_norad_cat_id": 28376,
        "meta_element_set_no": 999,
        "meta_rev_at_epoch": 14065,
        "meta_bstar": 0.0002176,
        "meta_mean_motion_dot": 1.019e-05,
        "meta_mean_motion_ddot": 0,
        "tle_line1": "1 28376U 04026A   25358.15892772  .00001019  00000+0  21760-3 0  9991",
        "tle_line2": "2 28376  98.3202 308.4396 0001421  91.2354 268.9009 14.60971548140652"
      },
      "geometry": {
        "type": "Point",
        "coordinates": [
          120.22759108308277,
          -45.15716011345069
        ]
      }
    },
    {
      "type": "Feature",
      "properties": {
        "norad_id": 28649,
        "name": "IRS-P5 (CARTOSAT-1)",
        "group": "resource",
        "lat": -53.138909974301306,
        "lon": -165.8839532114618,
        "alt_km": 603.9593108403078,
        "timestamp": "2025-12-24T09:46:30.651896+00:00",
        "meta_object_name": "IRS-P5 (CARTOSAT-1)",
        "meta_object_id": "2005-017A",
        "meta_epoch": "2025-12-24T02:17:04.480800",
        "meta_mean_motion": 14.90440964,
        "meta_eccentricity": 5.56e-05,
        "meta_inclination": 97.5482,
        "meta_ra_of_asc_node": 24.0044,
        "meta_arg_of_pericenter": 59.793,
        "meta_mean_anomaly": 300.3343,
        "meta_ephemeris_type": 0,
        "meta_classification_type": "U",
        "meta_norad_cat_id": 28649,
        "meta_element_set_no": 999,
        "meta_rev_at_epoch": 11773,
        "meta_bstar": 0.0001693,
        "meta_mean_motion_dot": 1.598e-05,
        "meta_mean_motion_ddot": 0,
        "tle_line1": "1 28649U 05017A   25358.09519075  .00001598  00000+0  16930-3 0  9995",
        "tle_line2": "2 28649  97.5482  24.0044 0000556  59.7930 300.3343 14.90440964117735"
      },
      "geometry": {
        "type": "Point",
        "coordinates": [
          -165.8839532114618,
          -53.138909974301306
        ]
      }
    },
    {
      "type": "Feature",
      "properties": {
        "norad_id": 28893,
        "name": "SINAH 1",
        "group": "resource",
        "lat": -18.275179284182425,
        "lon": -55.753969668747345,
        "alt_km": 686.4335408150791,
        "timestamp": "2025-12-24T09:46:30.651907+00:00",
        "meta_object_name": "SINAH 1",
        "meta_object_id": "2005-043D",
        "meta_epoch": "2025-12-24T02:18:43.687008",
        "meta_mean_motion": 14.63973896,
        "meta_eccentricity": 0.0015717,
        "meta_inclination": 98.2609,
        "meta_ra_of_asc_node": 126.6843,
        "meta_arg_of_pericenter": 103.8932,
        "meta_mean_anomaly": 256.402,
        "meta_ephemeris_type": 0,
        "meta_classification_type": "U",
        "meta_norad_cat_id": 28893,
        "meta_element_set_no": 999,
        "meta_rev_at_epoch": 7490,
        "meta_bstar": 9.2313e-05,
        "meta_mean_motion_dot": 4.35e-06,
        "meta_mean_motion_ddot": 0,
        "tle_line1": "1 28893U 05043D   25358.09633897  .00000435  00000+0  92313-4 0  9993",
        "tle_line2": "2 28893  98.2609 126.6843 0015717 103.8932 256.4020 14.63973896 74908"
      },
      "geometry": {
        "type": "Point",
        "coordinates": [
          -55.753969668747345,
          -18.275179284182425
        ]
      }
    },
    {
      "type": "Feature",
      "properties": {
        "norad_id": 29079,
        "name": "EROS B",
        "group": "resource",
        "lat": -21.931974570657893,
        "lon": 118.5457548137292,
        "alt_km": 356.11017879954034,
        "timestamp": "2025-12-24T09:46:30.651919+00:00",
        "meta_object_name": "EROS B",
        "meta_object_id": "2006-014A",
        "meta_epoch": "2025-12-24T03:45:28.842048",
        "meta_mean_motion": 15.71937291,
        "meta_eccentricity": 0.000416,
        "meta_inclination": 97.3457,
        "meta_ra_of_asc_node": 115.3042,
        "meta_arg_of_pericenter": 310.7357,
        "meta_mean_anomaly": 49.3545,
        "meta_ephemeris_type": 0,
        "meta_classification_type": "U",
        "meta_norad_cat_id": 29079,
        "meta_element_set_no": 999,
        "meta_rev_at_epoch": 9259,
        "meta_bstar": 0.0014626,
        "meta_mean_motion_dot": 0.00194266,
        "meta_mean_motion_ddot": 0,
        "tle_line1": "1 29079U 06014A   25358.15658382  .00194266  00000+0  14626-2 0  9997",
        "tle_line2": "2 29079  97.3457 115.3042 0004160 310.7357  49.3545 15.71937291 92597"
      },
      "geometry": {
        "type": "Point",
        "coordinates": [
          118.5457548137292,
          -21.931974570657893
        ]
      }
    },
    {
      "type": "Feature",
      "properties": {
        "norad_id": 29228,
        "name": "RESURS-DK 1",
        "group": "resource",
        "lat": 5.1939268983654525,
        "lon": 73.58956577018282,
        "alt_km": 533.3557624704463,
        "timestamp": "2025-12-24T09:46:30.651930+00:00",
        "meta_object_name": "RESURS-DK 1",
        "meta_object_id": "2006-021A",
        "meta_epoch": "2025-12-23T14:42:01.773792",
        "meta_mean_motion": 15.122178,
        "meta_eccentricity": 0.00068724,
        "meta_inclination": 69.9337,
        "meta_ra_of_asc_node": 73.7385,
        "meta_arg_of_pericenter": 249.2294,
        "meta_mean_anomaly": 110.8136,
        "meta_ephemeris_type": 0,
        "meta_classification_type": "U",
        "meta_norad_cat_id": 29228,
        "meta_element_set_no": 999,
        "meta_rev_at_epoch": 7602,
        "meta_bstar": 0.00016371419,
        "meta_mean_motion_dot": 2.729e-05,
        "meta_mean_motion_ddot": 0,
        "tle_line1": "1 29228U 06021A   25357.61252053  .00002729  00000+0  16371-3 0  9998",
        "tle_line2": "2 29228  69.9337  73.7385 0006872 249.2294 110.8136 15.12217800 76022"
      },
      "geometry": {
        "type": "Point",
        "coordinates": [
          73.58956577018282,
          5.1939268983654525
        ]
      }
    }
  ]
}